start=new Date('2023-01-11T00:00:00.000Z').valueOf();
sats=[{"LAUNCH_DATE":"2021-12-18","CLASSIFICATION_TYPE":"U","COUNTRY_CODE":"US","ARG_OF_PERICENTER":"37.0591","TLE_LINE1":"1 50183U 21125AD  23010.76387221 -.00003459  00000-0 -19935-3 0  9993","APOAPSIS":"541.433","OBJECT_NAME":"STARLINK-3281","SEMIMAJOR_AXIS":"6917.908","OBJECT_ID":"2021-125AD","FILE":"3739267","PERIAPSIS":"538.113","GP_ID":"222722563","PERIOD":"95.438","TIME_SYSTEM":"UTC","OBJECT_TYPE":"PAYLOAD","ELEMENT_SET_NO":"999","DECAY_DATE":null,"BSTAR":"-0.00019935000000","ECCENTRICITY":"0.00024000","INCLINATION":"53.2157","RA_OF_ASC_NODE":"29.3069","MEAN_MOTION_DDOT":"0.0000000000000","CENTER_NAME":"EARTH","NORAD_CAT_ID":"50183","MEAN_ELEMENT_THEORY":"SGP4","REV_AT_EPOCH":"6244","MEAN_MOTION":"15.08831026","SITE":"AFWTR","MEAN_MOTION_DOT":"-0.00003459","EPHEMERIS_TYPE":"0","EPOCH":"2023-01-10T18:19:58.558944","RCS_SIZE":"LARGE","MEAN_ANOMALY":"323.0567","REF_FRAME":"TEME","TLE_LINE2":"2 50183  53.2157  29.3069 0002400  37.0591 323.0567 15.08831026 62448"},{"GP_ID":"222722809","PERIOD":"95.437","PERIAPSIS":"538.110","FILE":"3739267","OBJECT_TYPE":"PAYLOAD","ELEMENT_SET_NO":"999","TIME_SYSTEM":"UTC","TLE_LINE1":"1 50185U 21125AF  23010.77122233  .00001075  00000-0  85631-4 0  9993","ARG_OF_PERICENTER":"32.5920","CLASSIFICATION_TYPE":"U","COUNTRY_CODE":"US","LAUNCH_DATE":"2021-12-18","OBJECT_ID":"2021-125AF","SEMIMAJOR_AXIS":"6917.877","OBJECT_NAME":"STARLINK-3279","APOAPSIS":"541.375","MEAN_MOTION":"15.08841068","MEAN_MOTION_DOT":"0.00001075","EPHEMERIS_TYPE":"0","SITE":"AFWTR","MEAN_ELEMENT_THEORY":"SGP4","NORAD_CAT_ID":"50185","REV_AT_EPOCH":"6240","MEAN_ANOMALY":"327.5218","RCS_SIZE":"LARGE","EPOCH":"2023-01-10T18:30:33.609312","REF_FRAME":"TEME","TLE_LINE2":"2 50185  53.2176  29.2717 0002360  32.5920 327.5218 15.08841068 62406","DECAY_DATE":null,"BSTAR":"0.00008563100000","CENTER_NAME":"EARTH","MEAN_MOTION_DDOT":"0.0000000000000","INCLINATION":"53.2176","ECCENTRICITY":"0.00023600","RA_OF_ASC_NODE":"29.2717"},{"TIME_SYSTEM":"UTC","ELEMENT_SET_NO":"999","OBJECT_TYPE":"PAYLOAD","PERIAPSIS":"538.281","FILE":"3739267","GP_ID":"222721064","PERIOD":"95.437","OBJECT_ID":"2021-125AG","SEMIMAJOR_AXIS":"6917.852","APOAPSIS":"541.153","OBJECT_NAME":"STARLINK-3274","CLASSIFICATION_TYPE":"U","COUNTRY_CODE":"US","LAUNCH_DATE":"2021-12-18","TLE_LINE1":"1 50186U 21125AG  23010.78502345  .00001179  00000-0  92180-4 0  9993","ARG_OF_PERICENTER":"31.0015","MEAN_ANOMALY":"329.1099","RCS_SIZE":"LARGE","EPOCH":"2023-01-10T18:50:26.026080","REF_FRAME":"TEME","TLE_LINE2":"2 50186  53.2159  39.2118 0002076  31.0015 329.1099 15.08849278 62256","MEAN_ELEMENT_THEORY":"SGP4","NORAD_CAT_ID":"50186","REV_AT_EPOCH":"6225","MEAN_MOTION":"15.08849278","MEAN_MOTION_DOT":"0.00001179","EPHEMERIS_TYPE":"0","SITE":"AFWTR","INCLINATION":"53.2159","ECCENTRICITY":"0.00020760","RA_OF_ASC_NODE":"39.2118","CENTER_NAME":"EARTH","MEAN_MOTION_DDOT":"0.0000000000000","DECAY_DATE":null,"BSTAR":"0.00009218000000"},{"RA_OF_ASC_NODE":"19.3742","ECCENTRICITY":"0.00026110","INCLINATION":"53.2160","MEAN_MOTION_DDOT":"0.0000000000000","CENTER_NAME":"EARTH","BSTAR":"0.00001012500000","DECAY_DATE":null,"REF_FRAME":"TEME","TLE_LINE2":"2 50187  53.2160  19.3742 0002611  30.5983 329.5161 15.08837535 62510","RCS_SIZE":"LARGE","EPOCH":"2023-01-10T17:54:47.583648","MEAN_ANOMALY":"329.5161","REV_AT_EPOCH":"6251","NORAD_CAT_ID":"50187","MEAN_ELEMENT_THEORY":"SGP4","SITE":"AFWTR","MEAN_MOTION_DOT":"-0.00000127","EPHEMERIS_TYPE":"0","MEAN_MOTION":"15.08837535","OBJECT_NAME":"STARLINK-3272","APOAPSIS":"541.559","OBJECT_ID":"2021-125AH","SEMIMAJOR_AXIS":"6917.888","LAUNCH_DATE":"2021-12-18","CLASSIFICATION_TYPE":"U","COUNTRY_CODE":"US","ARG_OF_PERICENTER":"30.5983","TLE_LINE1":"1 50187U 21125AH  23010.74638407 -.00000127  00000-0  10125-4 0  9991","TIME_SYSTEM":"UTC","ELEMENT_SET_NO":"999","OBJECT_TYPE":"PAYLOAD","FILE":"3739267","PERIAPSIS":"537.947","PERIOD":"95.438","GP_ID":"222721814"},{"MEAN_MOTION":"15.10034726","MEAN_MOTION_DOT":"0.00026342","EPHEMERIS_TYPE":"0","SITE":"AFWTR","NORAD_CAT_ID":"50188","MEAN_ELEMENT_THEORY":"SGP4","REV_AT_EPOCH":"6257","MEAN_ANOMALY":"277.6195","RCS_SIZE":"LARGE","EPOCH":"2023-01-10T17:48:18.266112","TLE_LINE2":"2 50188  53.2172  19.3010 0003527  82.5198 277.6195 15.10034726 62574","REF_FRAME":"TEME","DECAY_DATE":null,"BSTAR":"0.00161330000000","CENTER_NAME":"EARTH","MEAN_MOTION_DDOT":"0.0000000000000","INCLINATION":"53.2172","ECCENTRICITY":"0.00035270","RA_OF_ASC_NODE":"19.3010","GP_ID":"222722064","PERIOD":"95.362","FILE":"3739267","PERIAPSIS":"533.657","OBJECT_TYPE":"PAYLOAD","ELEMENT_SET_NO":"999","TIME_SYSTEM":"UTC","TLE_LINE1":"1 50188U 21125AJ  23010.74187808  .00026342  00000-0  16133-2 0  9995","ARG_OF_PERICENTER":"82.5198","CLASSIFICATION_TYPE":"U","COUNTRY_CODE":"US","LAUNCH_DATE":"2021-12-18","OBJECT_ID":"2021-125AJ","SEMIMAJOR_AXIS":"6914.231","OBJECT_NAME":"STARLINK-3275","APOAPSIS":"538.535"},{"REV_AT_EPOCH":"6243","NORAD_CAT_ID":"50189","MEAN_ELEMENT_THEORY":"SGP4","SITE":"AFWTR","MEAN_MOTION_DOT":"-0.00002447","EPHEMERIS_TYPE":"0","MEAN_MOTION":"15.08835745","REF_FRAME":"TEME","TLE_LINE2":"2 50189  53.2157  29.3570 0002014  40.0864 320.0277 15.08835745 62435","EPOCH":"2023-01-10T18:04:04.689984","RCS_SIZE":"LARGE","MEAN_ANOMALY":"320.0277","BSTAR":"-0.00013571000000","DECAY_DATE":null,"RA_OF_ASC_NODE":"29.3570","ECCENTRICITY":"0.00020140","INCLINATION":"53.2157","MEAN_MOTION_DDOT":"0.0000000000000","CENTER_NAME":"EARTH","PERIAPSIS":"538.365","FILE":"3739267","PERIOD":"95.438","GP_ID":"222722310","TIME_SYSTEM":"UTC","ELEMENT_SET_NO":"999","OBJECT_TYPE":"PAYLOAD","LAUNCH_DATE":"2021-12-18","COUNTRY_CODE":"US","CLASSIFICATION_TYPE":"U","ARG_OF_PERICENTER":"40.0864","TLE_LINE1":"1 50189U 21125AK  23010.75283206 -.00002447  00000-0 -13571-3 0  9992","APOAPSIS":"541.152","OBJECT_NAME":"STARLINK-3276","OBJECT_ID":"2021-125AK","SEMIMAJOR_AXIS":"6917.893"},{"APOAPSIS":"541.514","OBJECT_NAME":"STARLINK-3268","SEMIMAJOR_AXIS":"6917.899","OBJECT_ID":"2021-125AL","LAUNCH_DATE":"2021-12-18","CLASSIFICATION_TYPE":"U","COUNTRY_CODE":"US","ARG_OF_PERICENTER":"32.6429","TLE_LINE1":"1 50190U 21125AL  23010.73534849 -.00002053  00000-0 -11092-3 0  9993","TIME_SYSTEM":"UTC","ELEMENT_SET_NO":"999","OBJECT_TYPE":"PAYLOAD","PERIAPSIS":"538.015","FILE":"3739267","PERIOD":"95.438","GP_ID":"222721564","RA_OF_ASC_NODE":"19.4322","ECCENTRICITY":"0.00025290","INCLINATION":"53.2163","MEAN_MOTION_DDOT":"0.0000000000000","CENTER_NAME":"EARTH","BSTAR":"-0.00011092000000","DECAY_DATE":null,"TLE_LINE2":"2 50190  53.2163  19.4322 0002529  32.6429 327.4719 15.08833890 62525","REF_FRAME":"TEME","RCS_SIZE":"LARGE","EPOCH":"2023-01-10T17:38:54.109536","MEAN_ANOMALY":"327.4719","REV_AT_EPOCH":"6252","NORAD_CAT_ID":"50190","MEAN_ELEMENT_THEORY":"SGP4","SITE":"AFWTR","MEAN_MOTION_DOT":"-0.00002053","EPHEMERIS_TYPE":"0","MEAN_MOTION":"15.08833890"},{"LAUNCH_DATE":"2021-12-18","CLASSIFICATION_TYPE":"U","COUNTRY_CODE":"US","ARG_OF_PERICENTER":"39.5705","TLE_LINE1":"1 50191U 21125AM  23010.81079094  .00000354  00000-0  40367-4 0  9997","APOAPSIS":"541.259","OBJECT_NAME":"STARLINK-3273","SEMIMAJOR_AXIS":"6917.897","OBJECT_ID":"2021-125AM","FILE":"3739267","PERIAPSIS":"538.265","GP_ID":"222721315","PERIOD":"95.438","TIME_SYSTEM":"UTC","OBJECT_TYPE":"PAYLOAD","ELEMENT_SET_NO":"999","DECAY_DATE":null,"BSTAR":"0.00004036700000","ECCENTRICITY":"0.00021640","INCLINATION":"53.2168","RA_OF_ASC_NODE":"39.0849","MEAN_MOTION_DDOT":"0.0000000000000","CENTER_NAME":"EARTH","NORAD_CAT_ID":"50191","MEAN_ELEMENT_THEORY":"SGP4","REV_AT_EPOCH":"6225","MEAN_MOTION":"15.08834425","SITE":"AFWTR","MEAN_MOTION_DOT":"0.00000354","EPHEMERIS_TYPE":"0","RCS_SIZE":"LARGE","EPOCH":"2023-01-10T19:27:32.337216","MEAN_ANOMALY":"320.5445","REF_FRAME":"TEME","TLE_LINE2":"2 50191  53.2168  39.0849 0002164  39.5705 320.5445 15.08834425 62256"},{"RA_OF_ASC_NODE":"19.4510","INCLINATION":"53.2186","ECCENTRICITY":"0.00029790","CENTER_NAME":"EARTH","MEAN_MOTION_DDOT":"0.0000000000000","BSTAR":"0.00008536600000","DECAY_DATE":null,"TLE_LINE2":"2 50192  53.2186  19.4510 0002979  27.0502 333.0645 15.08835666 62524","REF_FRAME":"TEME","MEAN_ANOMALY":"333.0645","EPOCH":"2023-01-10T17:33:36.391680","RCS_SIZE":"LARGE","REV_AT_EPOCH":"6252","MEAN_ELEMENT_THEORY":"SGP4","NORAD_CAT_ID":"50192","MEAN_MOTION_DOT":"0.00001070","EPHEMERIS_TYPE":"0","SITE":"AFWTR","MEAN_MOTION":"15.08835666","OBJECT_ID":"2021-125AN","SEMIMAJOR_AXIS":"6917.894","APOAPSIS":"541.819","OBJECT_NAME":"STARLINK-3259","COUNTRY_CODE":"US","CLASSIFICATION_TYPE":"U","LAUNCH_DATE":"2021-12-18","TLE_LINE1":"1 50192U 21125AN  23010.73167120  .00001070  00000-0  85366-4 0  9991","ARG_OF_PERICENTER":"27.0502","TIME_SYSTEM":"UTC","ELEMENT_SET_NO":"999","OBJECT_TYPE":"PAYLOAD","PERIAPSIS":"537.698","FILE":"3739267","PERIOD":"95.438","GP_ID":"222722564"},{"INCLINATION":"53.2158","ECCENTRICITY":"0.00028430","RA_OF_ASC_NODE":"19.4068","CENTER_NAME":"EARTH","MEAN_MOTION_DDOT":"0.0000000000000","DECAY_DATE":null,"BSTAR":"-0.00010382000000","MEAN_ANOMALY":"324.7302","EPOCH":"2023-01-10T17:49:29.726688","RCS_SIZE":"LARGE","TLE_LINE2":"2 50193  53.2158  19.4068 0002843  35.3879 324.7302 15.08846768 62578","REF_FRAME":"TEME","NORAD_CAT_ID":"50193","MEAN_ELEMENT_THEORY":"SGP4","REV_AT_EPOCH":"6257","MEAN_MOTION":"15.08846768","MEAN_MOTION_DOT":"-0.00001941","EPHEMERIS_TYPE":"0","SITE":"AFWTR","SEMIMAJOR_AXIS":"6917.860","OBJECT_ID":"2021-125AP","APOAPSIS":"541.691","OBJECT_NAME":"STARLINK-3261","COUNTRY_CODE":"US","CLASSIFICATION_TYPE":"U","LAUNCH_DATE":"2021-12-18","TLE_LINE1":"1 50193U 21125AP  23010.74270517 -.00001941  00000-0 -10382-3 0  9992","ARG_OF_PERICENTER":"35.3879","TIME_SYSTEM":"UTC","ELEMENT_SET_NO":"999","OBJECT_TYPE":"PAYLOAD","PERIAPSIS":"537.758","FILE":"3739267","GP_ID":"222722810","PERIOD":"95.437"}];
